{
    "links": {
        "self": "http://www.neowsapp.com/rest/v1/neo/3778543?api_key=iIulBulltgU6a56xZRHN4H3l9WmuAYTsLGpBGhQ2"
    },
    "id": "3778543",
    "neo_reference_id": "3778543",
    "name": "(2017 OH7)",
    "designation": "2017 OH7",
    "nasa_jpl_url": "http://ssd.jpl.nasa.gov/sbdb.cgi?sstr=3778543",
    "absolute_magnitude_h": 22.7,
    "estimated_diameter": {
        "kilometers": {
            "estimated_diameter_min": 0.0766575574,
            "estimated_diameter_max": 0.1714115092
        },
        "meters": {
            "estimated_diameter_min": 76.6575573531,
            "estimated_diameter_max": 171.4115092306
        },
        "miles": {
            "estimated_diameter_min": 0.0476327831,
            "estimated_diameter_max": 0.1065101409
        },
        "feet": {
            "estimated_diameter_min": 251.5011804664,
            "estimated_diameter_max": 562.3737359442
        }
    },
    "is_potentially_hazardous_asteroid": false,
    "close_approach_data": [
        {
            "close_approach_date": "1979-08-20",
            "close_approach_date_full": "1979-Aug-20 22:33",
            "epoch_date_close_approach": 304036380000,
            "relative_velocity": {
                "kilometers_per_second": "18.2815979944",
                "kilometers_per_hour": "65813.7527796841",
                "miles_per_hour": "40894.1065535765"
            },
            "miss_distance": {
                "astronomical": "0.2845099489",
                "lunar": "110.6743701221",
                "kilometers": "42562082.349248843",
                "miles": "26446851.6150183134"
            },
            "orbiting_body": "Earth"
        },
        {
            "close_approach_date": "2017-07-20",
            "close_approach_date_full": "2017-Jul-20 09:51",
            "epoch_date_close_approach": 1500544260000,
            "relative_velocity": {
                "kilometers_per_second": "11.5324122942",
                "kilometers_per_hour": "41516.6842591621",
                "miles_per_hour": "25796.8530609222"
            },
            "miss_distance": {
                "astronomical": "0.0340944233",
                "lunar": "13.2627306637",
                "kilometers": "5100453.104558371",
                "miles": "3169274.5979566798"
            },
            "orbiting_body": "Earth"
        },
        {
            "close_approach_date": "2055-08-30",
            "close_approach_date_full": "2055-Aug-30 01:04",
            "epoch_date_close_approach": 2703200640000,
            "relative_velocity": {
                "kilometers_per_second": "21.8930713163",
                "kilometers_per_hour": "78815.0567387088",
                "miles_per_hour": "48972.6112274494"
            },
            "miss_distance": {
                "astronomical": "0.4225925334",
                "lunar": "164.3884954926",
                "kilometers": "63218942.874543858",
                "miles": "39282429.5517789204"
            },
            "orbiting_body": "Earth"
        },
        {
            "close_approach_date": "2164-09-02",
            "close_approach_date_full": "2164-Sep-02 22:21",
            "epoch_date_close_approach": 6143293260000,
            "relative_velocity": {
                "kilometers_per_second": "23.3482013918",
                "kilometers_per_hour": "84053.5250104624",
                "miles_per_hour": "52227.5916933065"
            },
            "miss_distance": {
                "astronomical": "0.4863142472",
                "lunar": "189.1762421608",
                "kilometers": "72751575.531773464",
                "miles": "45205732.8177592432"
            },
            "orbiting_body": "Earth"
        }
    ],
    "orbital_data": {
        "orbit_id": "13",
        "orbit_determination_date": "2020-09-07 08:44:04",
        "first_observation_date": "2017-07-25",
        "last_observation_date": "2017-09-15",
        "data_arc_in_days": 52,
        "observations_used": 180,
        "orbit_uncertainty": "6",
        "minimum_orbit_intersection": ".0336612",
        "jupiter_tisserand_invariant": "2.944",
        "epoch_osculation": "2459000.5",
        "eccentricity": ".6341323551849555",
        "semi_major_axis": "2.834968174238115",
        "inclination": "13.79383220950114",
        "ascending_node_longitude": "300.2164343021082",
        "orbital_period": "1743.495009364837",
        "perihelion_distance": "1.037223129034106",
        "perihelion_argument": "344.45834562",
        "aphelion_distance": "4.632713219442124",
        "perihelion_time": "2459688.098363464405",
        "mean_anomaly": "218.0234474331164",
        "mean_motion": ".2064818069832902",
        "equinox": "J2000",
        "orbit_class": {
            "orbit_class_type": "AMO",
            "orbit_class_description": "Near-Earth asteroid orbits similar to that of 1221 Amor",
            "orbit_class_range": "1.017 AU < q (perihelion) < 1.3 AU"
        }
    },
    "is_sentry_object": false
}